{"type": "FeatureCollection", "features": [{"type": "Feature", "properties": {"name": "Marsabit", "id": "marsabit", "centroid_lat": 2.8149, "centroid_lng": 37.7424}, "geometry": {"type": "Polygon", "coordinates": [[[36.0509, 4.4467], [36.8447, 4.4473], [37.0321, 4.3832], [37.1289, 4.2925], [38.0087, 3.7264], [38.1299, 3.6058], [38.4485, 3.6019], [38.5393, 3.6542], [38.5799, 3.6039], [38.6655, 3.5932], [38.6877, 3.6236], [38.7147, 3.5723], [38.9063, 3.5123], [39.0877, 3.5392], [39.1955, 3.4764], [39.3239, 3.4942], [39.2995, 3.4391], [39.3459, 3.0682], [39.2469, 2.9836], [39.1493, 2.9507], [39.1127, 2.8816], [39.0679, 2.8807], [39.0631, 2.7358], [39.0043, 2.6078], [38.9795, 2.5666], [38.8887, 2.5412], [38.9619, 2.0975], [38.3853, 1.7594], [38.3415, 1.5759], [37.9469, 1.261], [37.9523, 1.3849], [37.8541, 1.4568], [37.8443, 1.4234], [37.5817, 1.3635], [37.3597, 1.7267], [37.3047, 1.7521], [37.2745, 1.8672], [37.2325, 1.8716], [37.1619, 1.9618], [36.9181, 2.0162], [36.8955, 2.1902], [36.7591, 2.513], [36.7013, 2.5101], [36.6993, 2.4518], [36.6411, 2.3945], [36.5407, 2.4039], [36.5311, 2.5188], [36.4387, 2.6326], [36.4459, 2.7052], [36.3811, 2.8373], [36.2833, 2.8904], [36.2575, 2.9593], [36.1245, 2.9808], [36.1513, 3.2153], [36.0527, 3.2361], [36.0509, 4.4467]]]}}, {"type": "Feature", "properties": {"name": "Wajir", "id": "wajir", "centroid_lat": 2.269, "centroid_lng": 39.7543}, "geometry": {"type": "Polygon", "coordinates": [[[38.9619, 2.0975], [38.8887, 2.5412], [38.9795, 2.5666], [39.0043, 2.6078], [39.0631, 2.7358], [39.0679, 2.8807], [39.1127, 2.8816], [39.1493, 2.9507], [39.2469, 2.9836], [39.3459, 3.0682], [39.2995, 3.4391], [39.3203, 3.496], [39.3309, 3.4637], [39.4955, 3.464], [39.5149, 3.407], [39.5539, 3.3974], [39.588, 3.4919], [39.7852, 3.6986], [39.7873, 3.3338], [40.0341, 3.2349], [40.2707, 2.9692], [40.4935, 2.8652], [40.5213, 2.7737], [40.5009, 2.7167], [40.6769, 2.3736], [40.7385, 2.3116], [40.8335, 2.2856], [40.9209, 2.1857], [40.9915, 2.1763], [40.9947, 0.4613], [40.7187, 0.3188], [40.6509, 0.2311], [40.4061, 0.181], [40.2447, 0.2433], [40.0587, 0.3912], [39.7343, 0.5224], [39.5631, 0.7565], [39.2791, 1.4668], [39.4489, 1.5333], [39.3079, 1.6656], [39.2039, 1.7148], [39.1439, 1.8508], [38.9951, 2.0043], [38.9619, 2.0975]]]}}, {"type": "Feature", "properties": {"name": "Mandera", "id": "mandera", "centroid_lat": 3.4725, "centroid_lng": 40.894}, "geometry": {"type": "Polygon", "coordinates": [[[39.7852, 3.6986], [39.8696, 3.8747], [40.192, 4.0439], [40.3878, 4.1048], [40.7174, 4.245], [40.7596, 4.2849], [40.8441, 4.2463], [40.9042, 4.1546], [40.9651, 4.1321], [41.1693, 3.9426], [41.2353, 3.9589], [41.3263, 3.9388], [41.3912, 3.9628], [41.4302, 3.9449], [41.5098, 3.9546], [41.5452, 3.9821], [41.5669, 3.9667], [41.6277, 3.9833], [41.6744, 3.9599], [41.7206, 3.9925], [41.7918, 3.9821], [41.8332, 3.9465], [41.9068, 3.9827], [41.3121, 3.1412], [40.9892, 2.8283], [40.9915, 2.1763], [40.9209, 2.1857], [40.8335, 2.2856], [40.7385, 2.3116], [40.6769, 2.3736], [40.6623, 2.4258], [40.5921, 2.5007], [40.5009, 2.7167], [40.5213, 2.7737], [40.4957, 2.7964], [40.4935, 2.8652], [40.2707, 2.9692], [40.0341, 3.2349], [39.7873, 3.3338], [39.7852, 3.6986]]]}}, {"type": "Feature", "properties": {"name": "Garissa", "id": "garissa", "centroid_lat": -0.2082, "centroid_lng": 39.7651}, "geometry": {"type": "Polygon", "coordinates": [[[38.7499, -0.0307], [38.7295, 0.0843], [38.7579, 0.1816], [38.6583, 0.5066], [38.7657, 0.5109], [38.8573, 0.5964], [39.0109, 0.6229], [39.0525, 0.683], [39.1417, 0.6885], [39.3143, 0.9225], [39.4629, 0.9919], [39.5647, 0.7532], [39.7343, 0.5224], [40.0587, 0.3912], [40.3335, 0.1966], [40.4759, 0.1838], [40.5353, 0.2247], [40.6457, 0.2289], [40.7187, 0.3188], [40.9947, 0.4613], [40.9934, -0.834], [41.5589, -1.5986], [41.5594, -1.6621], [40.8935, -1.7186], [40.2131, -2.0399], [40.1637, -1.8248], [40.1583, -1.6276], [40.0883, -1.4788], [40.0573, -1.2511], [39.9355, -1.0062], [39.8189, -0.5961], [39.6933, -0.4956], [39.6335, -0.4951], [39.6269, -0.3217], [39.4483, -0.1521], [39.3271, -0.0921], [39.1559, -0.0808], [39.0813, -0.0068], [38.8843, -0.0537], [38.7499, -0.0307]]]}}, {"type": "Feature", "properties": {"name": "Isiolo", "id": "isiolo", "centroid_lat": 0.7383, "centroid_lng": 38.144}, "geometry": {"type": "Polygon", "coordinates": [[[36.9317, 0.7416], [36.9223, 0.6597], [36.8651, 0.571], [37.3687, 0.5094], [37.3489, 0.4482], [37.3923, 0.3534], [37.3783, 0.2682], [37.4307, 0.2956], [37.5365, 0.2599], [37.5559, 0.326], [37.6055, 0.3514], [37.5897, 0.4791], [38.0631, 0.6686], [38.1963, 0.3196], [38.1933, 0.2311], [38.2969, 0.1573], [38.4113, -0.0662], [38.4611, -0.0883], [38.5555, -0.0198], [38.7585, -0.0758], [38.7295, 0.0798], [38.7579, 0.1816], [38.6583, 0.5066], [38.7657, 0.5109], [38.8573, 0.5964], [39.0109, 0.6229], [39.0525, 0.683], [39.1417, 0.6885], [39.3143, 0.9225], [39.4629, 0.9919], [39.2783, 1.4717], [39.4489, 1.5333], [39.3079, 1.6656], [39.2039, 1.7148], [39.1439, 1.8508], [38.9951, 2.0043], [38.9619, 2.0975], [38.3853, 1.7594], [38.3415, 1.5759], [37.9469, 1.261], [37.9499, 1.1918], [38.0331, 1.0824], [38.0475, 0.8033], [38.0793, 0.7811], [38.0133, 0.8028], [37.9163, 0.7123], [37.8791, 0.7416], [37.8365, 0.6792], [37.6925, 0.662], [37.6359, 0.5975], [37.5321, 0.5646], [37.3657, 0.5859], [37.2583, 0.7623], [37.1671, 0.7414], [37.1005, 0.7854], [36.9317, 0.7416]]]}}, {"type": "Feature", "properties": {"name": "Turkana", "id": "turkana", "centroid_lat": 2.7043, "centroid_lng": 35.4342}, "geometry": {"type": "Polygon", "coordinates": [[[33.9878, 4.2341], [34.3875, 4.61], [35.9442, 4.6191], [35.956, 4.5346], [36.0509, 4.4467], [36.0527, 3.2361], [36.1513, 3.2153], [36.1245, 2.9808], [36.2575, 2.9593], [36.2833, 2.8904], [36.3641, 2.8567], [36.4459, 2.7052], [36.4387, 2.6326], [36.5311, 2.5188], [36.5407, 2.4039], [36.5935, 2.4103], [36.6019, 2.3584], [36.7253, 2.2997], [36.7019, 2.1968], [36.6095, 2.1584], [36.5659, 2.1028], [36.5157, 1.8721], [36.5283, 1.7551], [36.4631, 1.6125], [36.3955, 1.5237], [36.3711, 1.5937], [36.3033, 1.5384], [36.2921, 1.4626], [36.4665, 1.3981], [36.3951, 1.3143], [36.4543, 1.2558], [36.3893, 1.2629], [36.4221, 1.2341], [36.3919, 1.1742], [36.4421, 1.1739], [36.4537, 1.0157], [36.3989, 0.9133], [36.1739, 1.1689], [36.0981, 1.1661], [35.7813, 1.662], [35.5939, 1.7616], [35.4959, 1.7679], [35.4737, 1.8346], [35.3725, 1.9255], [35.3931, 1.962], [35.2985, 2.417], [35.2295, 2.4482], [35.1581, 2.626], [35.1133, 2.6503], [35.0647, 2.6163], [35.0163, 2.4952], [35.0263, 2.4308], [34.9463, 2.4518], [34.8973, 2.588], [34.8522, 2.5836], [34.7754, 2.6979], [34.7622, 2.8209], [34.599, 2.9247], [34.5723, 3.0914], [34.5458, 3.1365], [34.4604, 3.1743], [34.4006, 3.3706], [34.4193, 3.4333], [34.389, 3.4918], [34.4515, 3.5171], [34.4632, 3.6695], [34.3651, 3.7352], [34.3079, 3.7114], [34.2456, 3.7839], [34.1709, 3.7677], [34.1886, 3.7951], [34.1532, 3.807], [34.226, 3.831], [34.2156, 3.8809], [34.0884, 3.8613], [34.1346, 3.9613], [34.0601, 4.0095], [34.0914, 4.0491], [34.0495, 4.1211], [34.0657, 4.144], [33.9878, 4.2341]]]}}, {"type": "Feature", "properties": {"name": "Samburu", "id": "samburu", "centroid_lat": 1.4, "centroid_lng": 36.9922}, "geometry": {"type": "Polygon", "coordinates": [[[36.3947, 0.9113], [36.4867, 0.8498], [36.4881, 0.8124], [36.7157, 0.8182], [36.7939, 0.8691], [36.8635, 0.7397], [36.9121, 0.7272], [37.1005, 0.7854], [37.1671, 0.7414], [37.2583, 0.7623], [37.3657, 0.5859], [37.5161, 0.5657], [37.6359, 0.5975], [37.6925, 0.662], [37.8329, 0.6774], [37.8791, 0.7416], [37.9163, 0.7123], [38.0133, 0.8028], [38.0793, 0.7811], [38.0475, 0.8033], [38.0331, 1.0824], [37.9499, 1.1918], [37.9523, 1.3849], [37.8541, 1.4568], [37.8443, 1.4234], [37.5817, 1.3635], [37.3597, 1.7267], [37.3047, 1.7521], [37.2745, 1.8672], [37.2325, 1.8716], [37.1619, 1.9618], [36.9181, 2.0162], [36.8955, 2.1902], [36.7591, 2.513], [36.7013, 2.5101], [36.6993, 2.4518], [36.6411, 2.3945], [36.6027, 2.4031], [36.6019, 2.3584], [36.7253, 2.2997], [36.7239, 2.2729], [36.7019, 2.1968], [36.6095, 2.1584], [36.5659, 2.1028], [36.5157, 1.8721], [36.5283, 1.7551], [36.4649, 1.6161], [36.3955, 1.5237], [36.3711, 1.5937], [36.3033, 1.5384], [36.2921, 1.4626], [36.4665, 1.3981], [36.3951, 1.3143], [36.4543, 1.2558], [36.3893, 1.2629], [36.4221, 1.2341], [36.3919, 1.1742], [36.4421, 1.1739], [36.4537, 1.0157], [36.3947, 0.9113]]]}}, {"type": "Feature", "properties": {"name": "West Pokot", "id": "west_pokot", "centroid_lat": 1.7295, "centroid_lng": 35.1978}, "geometry": {"type": "Polygon", "coordinates": [[[34.7871, 1.3652], [34.8291, 1.3097], [34.819, 1.2585], [34.9075, 1.2814], [34.9057, 1.25], [35.0137, 1.253], [35.0435, 1.194], [35.0857, 1.1672], [35.1523, 1.1982], [35.2879, 1.134], [35.3159, 1.1694], [35.3431, 1.1256], [35.5461, 1.2847], [35.6088, 1.2778], [35.6979, 1.3163], [35.7076, 1.4366], [35.7833, 1.5781], [35.7813, 1.662], [35.5939, 1.7616], [35.4959, 1.7679], [35.4737, 1.8346], [35.3725, 1.9255], [35.3931, 1.962], [35.2985, 2.417], [35.2295, 2.4482], [35.2135, 2.54], [35.1581, 2.626], [35.1133, 2.6503], [35.0647, 2.6163], [35.0203, 2.5066], [35.0263, 2.4308], [34.9449, 2.4529], [34.9164, 2.4224], [35.0002, 1.9624], [34.9915, 1.6663], [34.9437, 1.5766], [34.8641, 1.5283], [34.7871, 1.3652]]]}}, {"type": "Feature", "properties": {"name": "Baringo", "id": "baringo", "centroid_lat": 0.3818, "centroid_lng": 35.9202}, "geometry": {"type": "Polygon", "coordinates": [[[35.5235, 0.0132], [35.5425, 0.0871], [35.5741, 0.0641], [35.5887, 0.1679], [35.6937, 0.1758], [35.7231, 0.2153], [35.7225, 0.3492], [35.6563, 0.3965], [35.5965, 0.6109], [35.6047, 0.668], [35.6354, 0.6982], [35.6347, 0.993], [35.7097, 1.1481], [35.6887, 1.3565], [35.7199, 1.4695], [35.7697, 1.532], [35.7863, 1.6545], [36.0981, 1.1661], [36.1739, 1.1689], [36.3173, 0.9885], [36.3887, 0.9471], [36.3955, 0.904], [36.4895, 0.8461], [36.4059, 0.717], [36.3481, 0.6597], [36.2789, 0.6313], [36.2945, 0.563], [36.2293, 0.4169], [36.2615, 0.3404], [36.2267, 0.3199], [36.2967, 0.2272], [36.2565, 0.1816], [36.2027, 0.2336], [36.1809, 0.2272], [36.1999, 0.2015], [36.1489, 0.1843], [36.1045, -0.0045], [36.0081, 0.0304], [35.9413, 0.0947], [35.9311, 0.0687], [35.9789, 0.0121], [35.9495, -0.0529], [35.9191, -0.082], [35.8779, -0.0361], [35.8209, -0.1174], [35.8077, -0.0997], [35.7911, -0.1126], [35.7727, -0.1947], [35.7247, -0.2053], [35.7305, -0.1577], [35.6897, -0.0748], [35.6541, -0.0784], [35.6677, -0.0502], [35.6407, -0.0615], [35.6339, -0.0363], [35.5235, 0.0132]]]}}, {"type": "Feature", "properties": {"name": "Elgeyo Marakwet", "id": "elgeyo_marakwet", "centroid_lat": 0.7546, "centroid_lng": 35.4918}, "geometry": {"type": "Polygon", "coordinates": [[[35.1523, 1.1982], [35.2427, 1.0729], [35.3629, 1.017], [35.3445, 0.9466], [35.4211, 0.9373], [35.4167, 0.9073], [35.4887, 0.8741], [35.5045, 0.7013], [35.4121, 0.7007], [35.4817, 0.5875], [35.4627, 0.4721], [35.4873, 0.3797], [35.4699, 0.3675], [35.5141, 0.3199], [35.4871, 0.2469], [35.5403, 0.2233], [35.5133, 0.1871], [35.6937, 0.1758], [35.7231, 0.2153], [35.7225, 0.3492], [35.6563, 0.3965], [35.5965, 0.6109], [35.6047, 0.668], [35.6354, 0.6982], [35.6347, 0.993], [35.7097, 1.1481], [35.6979, 1.3163], [35.6088, 1.2778], [35.5461, 1.2847], [35.3431, 1.1256], [35.3159, 1.1694], [35.2879, 1.134], [35.1523, 1.1982]]]}}, {"type": "Feature", "properties": {"name": "Vihiga", "id": "vihiga", "centroid_lat": 0.0704, "centroid_lng": 34.724}, "geometry": {"type": "Polygon", "coordinates": [[[34.5341, -0.0166], [34.5599, 0.0464], [34.5551, 0.0854], [34.5887, 0.1133], [34.6339, 0.1265], [34.6867, 0.1229], [34.7363, 0.1465], [34.7623, 0.1376], [34.7975, 0.1604], [34.8163, 0.1525], [34.8165, 0.1836], [34.8449, 0.1814], [34.8913, 0.2038], [34.9265, 0.1978], [34.9145, 0.154], [34.8615, 0.1199], [34.8601, 0.0815], [34.8369, 0.0304], [34.8201, 0.0325], [34.7645, -0.0015], [34.7583, 0.008], [34.7417, 0.0032], [34.7475, -0.0236], [34.7261, -0.0072], [34.6963, -0.0206], [34.6039, 0.0101], [34.5773, -0.038], [34.5627, -0.038], [34.5635, -0.0221], [34.5341, -0.0166]]]}}, {"type": "Feature", "properties": {"name": "Busia", "id": "busia", "centroid_lat": 0.4043, "centroid_lng": 34.2199}, "geometry": {"type": "Polygon", "coordinates": [[[33.952, -0.0328], [34.0163, -0.03], [34.0427, -0.0021], [34.0729, 0.1166], [34.1123, 0.1343], [34.1177, 0.2408], [34.1607, 0.2972], [34.2045, 0.2635], [34.2523, 0.311], [34.3663, 0.3016], [34.3853, 0.3498], [34.4211, 0.3683], [34.3463, 0.4216], [34.4091, 0.503], [34.3691, 0.5605], [34.3707, 0.6008], [34.4199, 0.6592], [34.4053, 0.7236], [34.4341, 0.7303], [34.4247, 0.7554], [34.3192, 0.765], [34.3132, 0.6948], [34.2787, 0.6794], [34.2778, 0.6406], [34.2003, 0.626], [34.1382, 0.5829], [34.1195, 0.4834], [34.0888, 0.4541], [34.0996, 0.3471], [34.0568, 0.3213], [33.9106, 0.1041], [33.952, -0.0328]]]}}, {"type": "Feature", "properties": {"name": "Siaya", "id": "siaya", "centroid_lat": 0.072, "centroid_lng": 34.3342}, "geometry": {"type": "Polygon", "coordinates": [[[33.9491, -0.3397], [33.9843, -0.1337], [33.952, -0.0328], [34.0163, -0.03], [34.0427, -0.0021], [34.0729, 0.1166], [34.1123, 0.1343], [34.1065, 0.1871], [34.1177, 0.2408], [34.1447, 0.2596], [34.1607, 0.2972], [34.2045, 0.2635], [34.2057, 0.2828], [34.2357, 0.2897], [34.2523, 0.311], [34.3781, 0.3044], [34.4011, 0.258], [34.3993, 0.2349], [34.3849, 0.2264], [34.3853, 0.1772], [34.4297, 0.2106], [34.4373, 0.1996], [34.4275, 0.1838], [34.4417, 0.1639], [34.4303, 0.1459], [34.4821, 0.1492], [34.4835, 0.1362], [34.4579, 0.128], [34.4769, 0.1158], [34.4751, 0.1025], [34.4955, 0.102], [34.5009, 0.1229], [34.5083, 0.1141], [34.5415, 0.1362], [34.5549, 0.1246], [34.5453, 0.112], [34.5583, 0.105], [34.5599, 0.0464], [34.5361, 0.0035], [34.5423, -0.0048], [34.5257, -0.0222], [34.4613, -0.044], [34.4169, -0.0875], [34.4839, -0.3019], [34.3023, -0.4308], [34.2713, -0.418], [34.2417, -0.3429], [33.9491, -0.3397]]]}}, {"type": "Feature", "properties": {"name": "Migori", "id": "migori", "centroid_lat": -0.9241, "centroid_lng": 34.3384}, "geometry": {"type": "Polygon", "coordinates": [[[33.9314, -0.8075], [34.0803, -0.8079], [34.1979, -0.7451], [34.2523, -0.8198], [34.3225, -0.8674], [34.3821, -0.8487], [34.3879, -0.819], [34.4645, -0.8646], [34.5583, -0.6682], [34.636, -0.6635], [34.6081, -0.852], [34.6434, -0.9691], [34.5919, -1.0365], [34.6253, -1.1561], [34.6885, -1.2166], [34.7315, -1.3894], [34.0803, -1.0219], [34.0409, -1.0462], [34.0189, -1.0], [33.9334, -1.0], [33.9314, -0.8075]]]}}, {"type": "Feature", "properties": {"name": "Homa Bay", "id": "homa_bay", "centroid_lat": -0.5757, "centroid_lng": 34.5204}, "geometry": {"type": "Polygon", "coordinates": [[[33.9314, -0.8075], [33.929, -0.4577], [33.9491, -0.3397], [34.2417, -0.3429], [34.2713, -0.418], [34.3023, -0.4308], [34.4225, -0.3375], [34.5309, -0.2733], [34.7043, -0.2595], [34.7557, -0.2926], [34.8285, -0.3888], [34.8917, -0.4026], [34.9159, -0.3869], [34.9149, -0.4032], [34.9517, -0.4168], [34.9853, -0.4145], [35.0108, -0.3916], [35.0219, -0.4064], [34.9991, -0.4305], [34.8522, -0.5124], [34.7686, -0.5353], [34.752, -0.5592], [34.7134, -0.5594], [34.6866, -0.6026], [34.6531, -0.6133], [34.6371, -0.6637], [34.5885, -0.6525], [34.5583, -0.6682], [34.5349, -0.7056], [34.5325, -0.7433], [34.4863, -0.7892], [34.4645, -0.8646], [34.3879, -0.819], [34.3821, -0.8487], [34.3225, -0.8674], [34.2849, -0.8273], [34.2523, -0.8198], [34.1979, -0.7451], [34.1419, -0.7798], [34.0883, -0.7873], [34.0803, -0.8079], [33.9314, -0.8075]]]}}, {"type": "Feature", "properties": {"name": "Nyamira", "id": "nyamira", "centroid_lat": -0.6466, "centroid_lng": 34.9587}, "geometry": {"type": "Polygon", "coordinates": [[[34.7801, -0.6758], [34.9081, -0.7619], [34.9441, -0.7736], [35.014, -0.8902], [35.0229, -0.8489], [35.0455, -0.8546], [35.0919, -0.8032], [35.0485, -0.71], [35.0726, -0.6927], [35.0558, -0.6573], [35.0649, -0.6311], [35.0493, -0.5709], [35.0569, -0.5081], [35.0339, -0.499], [35.0457, -0.4487], [35.0279, -0.4155], [34.8609, -0.5036], [34.8711, -0.5075], [34.8733, -0.5765], [34.8912, -0.6127], [34.8432, -0.5977], [34.8147, -0.636], [34.8119, -0.6666], [34.7801, -0.6758]]]}}, {"type": "Feature", "properties": {"name": "Lamu", "id": "lamu", "centroid_lat": -2.1412, "centroid_lng": 40.7524}, "geometry": {"type": "Polygon", "coordinates": [[[40.2131, -2.0399], [40.8935, -1.7186], [41.5594, -1.6621], [41.5143, -1.7286], [41.5188, -1.7568], [41.268, -2.0364], [40.9628, -2.32], [40.7813, -2.4595], [40.6631, -2.4686], [40.4491, -2.4033], [40.4007, -2.4332], [40.3459, -2.4011], [40.2513, -2.3992], [40.2511, -2.2506], [40.2131, -2.0399]]]}}, {"type": "Feature", "properties": {"name": "Taita Taveta", "id": "taita_taveta", "centroid_lat": -3.2654, "centroid_lng": 38.3296}, "geometry": {"type": "Polygon", "coordinates": [[[37.5903, -3.4345], [37.5856, -3.4616], [37.6262, -3.48], [37.6084, -3.52], [37.6789, -3.5046], [37.7494, -3.5446], [37.7841, -3.6713], [38.4488, -4.1417], [38.9467, -3.9619], [39.0355, -3.7617], [38.9311, -3.6983], [38.9691, -3.6361], [39.0571, -3.686], [39.2199, -3.0693], [39.1649, -3.0676], [39.1263, -3.0219], [39.0861, -3.0557], [39.0281, -3.0233], [38.8053, -3.0708], [38.7741, -3.0457], [38.6667, -3.041], [38.5393, -2.9763], [38.4609, -2.9946], [38.2581, -2.7598], [38.1607, -2.6848], [37.9751, -2.7899], [37.9379, -2.7733], [37.9185, -2.8709], [37.8951, -2.8881], [37.8533, -3.181], [37.6939, -3.1961], [37.7121, -3.3113], [37.5903, -3.4345]]]}}, {"type": "Feature", "properties": {"name": "Tana River", "id": "tana_river", "centroid_lat": -1.4201, "centroid_lng": 39.4607}, "geometry": {"type": "Polygon", "coordinates": [[[38.4199, -0.0714], [38.8069, -0.7288], [38.9623, -1.0546], [38.9993, -1.6817], [38.9597, -1.7044], [39.0141, -1.9162], [38.7967, -2.3435], [38.6961, -2.4119], [38.6247, -2.4138], [39.0819, -3.0532], [39.1263, -3.0219], [39.1677, -3.0687], [39.2291, -3.0623], [39.8929, -2.3117], [40.1958, -2.7432], [40.3403, -2.5869], [40.4956, -2.5345], [40.6091, -2.5608], [40.7343, -2.4596], [40.6631, -2.4686], [40.4437, -2.4025], [40.4007, -2.4332], [40.2513, -2.3992], [40.1583, -1.6276], [40.0883, -1.4788], [40.0573, -1.2511], [39.9355, -1.0062], [39.8189, -0.5961], [39.6933, -0.4956], [39.6335, -0.4951], [39.6269, -0.3217], [39.5821, -0.2692], [39.4483, -0.1521], [39.3271, -0.0921], [39.1559, -0.0808], [39.0813, -0.0068], [38.8843, -0.0537], [38.7499, -0.0307], [38.7585, -0.0758], [38.5555, -0.0198], [38.4645, -0.087], [38.4199, -0.0714]]]}}]}